     2              NAVIGATION DATA                         RINEX VERSION / TYPE
CCRINEXN V1.6.0 UX  CDDIS               07-FEB-08 10:58     PGM / RUN BY / DATE 
IGS BROADCAST EPHEMERIS FILE                                COMMENT             
    0.8382E-08 -0.1490E-07 -0.5960E-07  0.1192E-06          ION ALPHA           
    0.9421E+05 -0.1311E+06 -0.1311E+06  0.8520E+06          ION BETA            
   -0.186264514923E-08-0.710542735760E-14   503808     1459 DELTA-UTC: A0,A1,T,W
    14                                                      LEAP SECONDS        
                                                            END OF HEADER       
27 07 12 26  7 59 44.0 0.156643800438E-03 0.250111042988E-11 0.000000000000E+00
    0.180000000000E+02-0.976250000000E+02 0.468340936851E-08 0.126095806911E+01
   -0.548921525478E-05 0.210163058946E-01 0.280700623989E-05 0.515362797165E+04
    0.287984000000E+06-0.312924385071E-06-0.607565388177E+00-0.307336449623E-06
    0.967278114650E+00 0.338625000000E+03-0.175830771975E+01-0.855535636493E-08
   -0.273582824394E-09 0.100000000000E+01 0.145900000000E+04 0.000000000000E+00
    0.200000000000E+01 0.000000000000E+00-0.419095158577E-08 0.180000000000E+02
    0.280818000000E+06 0.400000000000E+01 0.000000000000E+00 0.000000000000E+00
 2 07 12 26  8  0  0.0 0.161280855536E-03 0.295585778076E-11 0.000000000000E+00
    0.110000000000E+02-0.185937500000E+02 0.508378318855E-08-0.114338530339E+01
   -0.955536961556E-06 0.872655771673E-02 0.731460750103E-05 0.515366230583E+04
    0.288000000000E+06-0.115483999252E-06 0.258725258609E+01-0.106170773506E-06
    0.944584008390E+00 0.231750000000E+03 0.243309398155E+01-0.829998858498E-08
   -0.329299430929E-09 0.100000000000E+01 0.145900000000E+04 0.000000000000E+00
    0.200000000000E+01 0.000000000000E+00-0.172294676304E-07 0.110000000000E+02
    0.280800000000E+06 0.000000000000E+00 0.000000000000E+00 0.000000000000E+00
 3 07 12 26  8  0  0.0 0.163650140166E-03 0.545696821064E-11 0.000000000000E+00
    0.570000000000E+02 0.168750000000E+02 0.542808324431E-08-0.172026556938E+01
    0.869855284691E-06 0.102765284246E-01 0.721588730812E-05 0.515365017510E+04
    0.288000000000E+06 0.191852450371E-06 0.144466683181E+01-0.121071934700E-06
    0.925397176541E+00 0.219375000000E+03 0.800787657826E+00-0.825320092180E-08
    0.592881838765E-09 0.100000000000E+01 0.145900000000E+04 0.000000000000E+00
    0.280000000000E+01 0.000000000000E+00-0.419095158577E-08 0.570000000000E+02
    0.280818000000E+06 0.400000000000E+01 0.000000000000E+00 0.000000000000E+00
 4 07 12 26  8  0  0.0-0.422112643719E-04-0.534328137292E-11 0.000000000000E+00
    0.640000000000E+02-0.163437500000E+02 0.513699969094E-08 0.148009312080E+01
   -0.683590769768E-06 0.808533758391E-02 0.716000795364E-05 0.515367200851E+04
    0.288000000000E+06-0.502914190292E-07 0.260628954491E+01 0.651925802231E-07
    0.943953941276E+00 0.234781250000E+03 0.337651291320E+00-0.826748723117E-08
   -0.556808907612E-09 0.100000000000E+01 0.145900000000E+04 0.000000000000E+00
    0.200000000000E+01 0.000000000000E+00-0.605359673500E-08 0.640000000000E+02
    0.280800000000E+06 0.000000000000E+00 0.000000000000E+00 0.000000000000E+00
 5 07 12 26  8  0  0.0 0.616078265011E-03 0.189857018995E-10 0.000000000000E+00
    0.200000000000E+01-0.916250000000E+02 0.469090968093E-08 0.939164937041E+00
   -0.482052564621E-05 0.849968986586E-02 0.110864639282E-04 0.515368130875E+04
    0.288000000000E+06-0.124797224999E-06 0.410833652665E+00-0.372529029846E-08
    0.941702448910E+00 0.156718750000E+03 0.121926676468E+01-0.812105256015E-08
    0.910752222200E-10 0.100000000000E+01 0.145900000000E+04 0.000000000000E+00
    0.200000000000E+01 0.000000000000E+00-0.419095158577E-08 0.200000000000E+01
    0.286050000000E+06 0.000000000000E+00 0.000000000000E+00 0.000000000000E+00
 6 07 12 26  8  0  0.0 0.176866538823E-03-0.135287336889E-10 0.000000000000E+00
    0.110000000000E+02 0.247187500000E+02 0.538808157808E-08 0.242902038521E+01
    0.117905437946E-05 0.543399329763E-02 0.677257776260E-05 0.515361199379E+04
    0.288000000000E+06 0.800937414169E-07 0.150789297062E+01 0.223517417908E-07
    0.932951226146E+00 0.233000000000E+03-0.166233294990E+01-0.825391523727E-08
    0.486805991709E-09 0.100000000000E+01 0.145900000000E+04 0.000000000000E+00
    0.200000000000E+01 0.000000000000E+00-0.465661287308E-08 0.110000000000E+02
    0.280800000000E+06 0.000000000000E+00 0.000000000000E+00 0.000000000000E+00
 7 07 12 26  8  0  0.0 0.466126948595E-06 0.367208485841E-10 0.000000000000E+00
    0.120000000000E+02 0.212187500000E+02 0.532343602819E-08 0.223091042288E+01
    0.948086380959E-06 0.100855134660E-01 0.686012208462E-05 0.515375176430E+04
    0.288000000000E+06 0.156462192535E-06 0.148255325016E+01-0.409781932831E-07
    0.934571074374E+00 0.229968750000E+03-0.162404699400E+01-0.816105422638E-08
    0.486091676241E-09 0.100000000000E+01 0.145900000000E+04 0.000000000000E+00
    0.200000000000E+01 0.630000000000E+02-0.232830643654E-08 0.120000000000E+02
    0.284178000000E+06 0.400000000000E+01 0.000000000000E+00 0.000000000000E+00
 8 07 12 26  8  0  0.0-0.134756322950E-03-0.136424205266E-11 0.000000000000E+00
    0.125000000000E+03-0.111000000000E+03 0.421553273672E-08 0.247148498082E+01
   -0.562891364098E-05 0.101427456830E-01 0.331364572048E-05 0.515366035843E+04
    0.288000000000E+06-0.204890966415E-07-0.496596581378E+00 0.184401869774E-06
    0.981500672974E+00 0.330812500000E+03 0.284956328181E+01-0.802604860285E-08
   -0.300726812193E-09 0.100000000000E+01 0.145900000000E+04 0.000000000000E+00
    0.400000000000E+01 0.000000000000E+00-0.419095158577E-08 0.125000000000E+03
    0.280800000000E+06 0.000000000000E+00 0.000000000000E+00 0.000000000000E+00
 9 07 12 26  8  0  0.0 0.102733727544E-03 0.170530256582E-11 0.000000000000E+00
    0.890000000000E+02-0.112250000000E+03 0.435196699118E-08 0.213384962215E+01
   -0.616908073425E-05 0.194256887771E-01 0.225938856602E-05 0.515369099426E+04
    0.288000000000E+06 0.178813934326E-06-0.583985049070E+00-0.337138772011E-06
    0.969285204608E+00 0.337562500000E+03 0.137968185146E+01-0.798104672835E-08
   -0.287511976028E-09 0.100000000000E+01 0.145900000000E+04 0.000000000000E+00
    0.400000000000E+01 0.000000000000E+00-0.558793544769E-08 0.890000000000E+02
    0.280800000000E+06 0.000000000000E+00 0.000000000000E+00 0.000000000000E+00
10 07 12 26  8  0  0.0-0.185768119991E-03-0.125055521494E-10 0.000000000000E+00
    0.610000000000E+02 0.898437500000E+02 0.407981279772E-08-0.490835665573E+00
    0.482052564621E-05 0.786043819971E-02 0.102631747723E-04 0.515375433922E+04
    0.288000000000E+06 0.100582838059E-06-0.261650776291E+01 0.109896063805E-06
    0.966299514619E+00 0.184031250000E+03 0.506208915759E+00-0.784032658107E-08
   -0.138934358602E-09 0.100000000000E+01 0.145900000000E+04 0.000000000000E+00
    0.280000000000E+01 0.000000000000E+00-0.232830643654E-08 0.610000000000E+02
    0.280800000000E+06 0.000000000000E+00 0.000000000000E+00 0.000000000000E+00
11 07 12 26  8  0  0.0 0.267601571977E-04 0.113686837722E-12 0.000000000000E+00
    0.550000000000E+02-0.168437500000E+02 0.639848085626E-08 0.290953713429E+01
   -0.864267349243E-06 0.773054629099E-02 0.573135912418E-05 0.515372665596E+04
    0.288000000000E+06-0.204890966415E-07 0.241338035583E+01-0.819563865662E-07
    0.892026656102E+00 0.233375000000E+03 0.562029186863E+00-0.879643824447E-08
   -0.290369228662E-09 0.100000000000E+01 0.145900000000E+04 0.000000000000E+00
    0.200000000000E+01 0.000000000000E+00-0.116415321827E-07 0.550000000000E+02
    0.280818000000E+06 0.400000000000E+01 0.000000000000E+00 0.000000000000E+00
12 07 12 26  8  0  0.0-0.352486036718E-03-0.102318153950E-11 0.000000000000E+00
    0.100000000000E+03-0.756875000000E+02 0.413338645785E-08-0.283974241430E+01
   -0.400468707085E-05 0.316132954322E-02 0.113230198622E-04 0.515371422958E+04
    0.288000000000E+06 0.186264514923E-07 0.500625854219E+00 0.130385160446E-07
    0.963147719060E+00 0.159312500000E+03-0.108218692410E+01-0.764103256539E-08
    0.211794536378E-09 0.100000000000E+01 0.145900000000E+04 0.000000000000E+00
    0.280000000000E+01 0.000000000000E+00-0.116415321827E-07 0.100000000000E+03
    0.280818000000E+06 0.400000000000E+01 0.000000000000E+00 0.000000000000E+00
13 07 12 26  8  0  0.0 0.230284873396E-03 0.238742359215E-11 0.000000000000E+00
    0.630000000000E+02 0.915312500000E+02 0.406052613755E-08-0.746750748229E+00
    0.479631125927E-05 0.329436594620E-02 0.273995101452E-05 0.515370216370E+04
    0.288000000000E+06-0.782310962677E-07-0.155211528424E+01-0.372529029846E-08
    0.994961415245E+00 0.348250000000E+03 0.139911579650E+01-0.811640976650E-08
    0.252867671247E-09 0.100000000000E+01 0.145900000000E+04 0.000000000000E+00
    0.200000000000E+01 0.000000000000E+00-0.111758708954E-07 0.630000000000E+02
    0.280818000000E+06 0.400000000000E+01 0.000000000000E+00 0.000000000000E+00
14 07 12 26  8  0  0.0-0.310371629894E-03 0.284217094304E-11 0.000000000000E+00
    0.870000000000E+02 0.100843750000E+03 0.413445793105E-08-0.109925390720E+01
    0.531785190105E-05 0.376354705077E-02 0.188499689102E-05 0.515364629936E+04
    0.288000000000E+06 0.447034835815E-07-0.156853557123E+01 0.428408384323E-07
    0.988808564669E+00 0.359375000000E+03-0.211528932007E+01-0.816319717279E-08
    0.271082720255E-09 0.100000000000E+01 0.145900000000E+04 0.000000000000E+00
    0.280000000000E+01 0.000000000000E+00-0.884756445885E-08 0.870000000000E+02
    0.280818000000E+06 0.400000000000E+01 0.000000000000E+00 0.000000000000E+00
